{
  "type": "FeatureCollection",
  "features": [
    {
      "type": "Feature",
      "properties": {
        "norad_id": 33860,
        "name": "IRIDIUM 33 DEB",
        "group": "iridium-33-debris",
        "lat": 24.791147123808905,
        "lon": -159.99397238509243,
        "alt_km": 672.2707330696876,
        "timestamp": "2025-12-25T07:00:34.433307+00:00",
        "meta_object_name": "IRIDIUM 33 DEB",
        "meta_object_id": "1997-051AD",
        "meta_epoch": "2025-12-24T12:59:38.336352",
        "meta_mean_motion": 14.67504611,
        "meta_eccentricity": 0.00060848,
        "meta_inclination": 86.3822,
        "meta_ra_of_asc_node": 22.0129,
        "meta_arg_of_pericenter": 311.3262,
        "meta_mean_anomaly": 200.6333,
        "meta_ephemeris_type": 0,
        "meta_classification_type": "U",
        "meta_norad_cat_id": 33860,
        "meta_element_set_no": 999,
        "meta_rev_at_epoch": 88895,
        "meta_bstar": 0.0011545286,
        "meta_mean_motion_dot": 6.566e-05,
        "meta_mean_motion_ddot": 0,
        "tle_line1": "1 33860U 97051AD  25358.54141593  .00006566  00000+0  11545-2 0  9997",
        "tle_line2": "2 33860  86.3822  22.0129 0006084 311.3262 200.6333 14.67504611888953"
      },
      "geometry": {
        "type": "Point",
        "coordinates": [
          -159.99397238509243,
          24.791147123808905
        ]
      }
    },
    {
      "type": "Feature",
      "properties": {
        "norad_id": 33862,
        "name": "IRIDIUM 33 DEB",
        "group": "iridium-33-debris",
        "lat": -73.70552403908133,
        "lon": 19.58489334792538,
        "alt_km": 676.3373301656193,
        "timestamp": "2025-12-25T07:00:34.433318+00:00",
        "meta_object_name": "IRIDIUM 33 DEB",
        "meta_object_id": "1997-051AF",
        "meta_epoch": "2025-12-24T20:41:22.554240",
        "meta_mean_motion": 14.69665341,
        "meta_eccentricity": 0.0052137,
        "meta_inclination": 86.4081,
        "meta_ra_of_asc_node": 32.1834,
        "meta_arg_of_pericenter": 28.4206,
        "meta_mean_anomaly": 144.5515,
        "meta_ephemeris_type": 0,
        "meta_classification_type": "U",
        "meta_norad_cat_id": 33862,
        "meta_element_set_no": 999,
        "meta_rev_at_epoch": 89001,
        "meta_bstar": 0.0015263511,
        "meta_mean_motion_dot": 9.3e-05,
        "meta_mean_motion_ddot": 0,
        "tle_line1": "1 33862U 97051AF  25358.86206660  .00009300  00000+0  15264-2 0  9992",
        "tle_line2": "2 33862  86.4081  32.1834 0052137  28.4206 144.5515 14.69665341890010"
      },
      "geometry": {
        "type": "Point",
        "coordinates": [
          19.58489334792538,
          -73.70552403908133
        ]
      }
    },
    {
      "type": "Feature",
      "properties": {
        "norad_id": 33866,
        "name": "IRIDIUM 33 DEB",
        "group": "iridium-33-debris",
        "lat": 25.217891023693472,
        "lon": -94.02134014200418,
        "alt_km": 737.0811388849124,
        "timestamp": "2025-12-25T07:00:34.433329+00:00",
        "meta_object_name": "IRIDIUM 33 DEB",
        "meta_object_id": "1997-051AK",
        "meta_epoch": "2025-12-24T05:18:24.789600",
        "meta_mean_motion": 14.25308834,
        "meta_eccentricity": 0.01151675,
        "meta_inclination": 86.2998,
        "meta_ra_of_asc_node": 88.1782,
        "meta_arg_of_pericenter": 125.0108,
        "meta_mean_anomaly": 297.1941,
        "meta_ephemeris_type": 0,
        "meta_classification_type": "U",
        "meta_norad_cat_id": 33866,
        "meta_element_set_no": 999,
        "meta_rev_at_epoch": 86974,
        "meta_bstar": 0.0005658111,
        "meta_mean_motion_dot": 1.447e-05,
        "meta_mean_motion_ddot": 0,
        "tle_line1": "1 33866U 97051AK  25358.22112025  .00001447  00000+0  56581-3 0  9999",
        "tle_line2": "2 33866  86.2998  88.1782 0115167 125.0108 297.1941 14.25308834869747"
      },
      "geometry": {
        "type": "Point",
        "coordinates": [
          -94.02134014200418,
          25.217891023693472
        ]
      }
    },
    {
      "type": "Feature",
      "properties": {
        "norad_id": 33870,
        "name": "IRIDIUM 33 DEB",
        "group": "iridium-33-debris",
        "lat": 77.9706663958831,
        "lon": -144.43594921808275,
        "alt_km": 718.9222464730155,
        "timestamp": "2025-12-25T07:00:34.433375+00:00",
        "meta_object_name": "IRIDIUM 33 DEB",
        "meta_object_id": "1997-051AP",
        "meta_epoch": "2025-12-24T16:08:59.745408",
        "meta_mean_motion": 14.45908486,
        "meta_eccentricity": 0.0022611,
        "meta_inclination": 86.3733,
        "meta_ra_of_asc_node": 53.1452,
        "meta_arg_of_pericenter": 140.286,
        "meta_mean_anomaly": 340.5281,
        "meta_ephemeris_type": 0,
        "meta_classification_type": "U",
        "meta_norad_cat_id": 33870,
        "meta_element_set_no": 999,
        "meta_rev_at_epoch": 88309,
        "meta_bstar": 0.00069261922,
        "meta_mean_motion_dot": 2.489e-05,
        "meta_mean_motion_ddot": 0,
        "tle_line1": "1 33870U 97051AP  25358.67291372  .00002489  00000+0  69262-3 0  9993",
        "tle_line2": "2 33870  86.3733  53.1452 0022611 140.2860 340.5281 14.45908486883096"
      },
      "geometry": {
        "type": "Point",
        "coordinates": [
          -144.43594921808275,
          77.9706663958831
        ]
      }
    },
    {
      "type": "Feature",
      "properties": {
        "norad_id": 33881,
        "name": "IRIDIUM 33 DEB",
        "group": "iridium-33-debris",
        "lat": 82.27800648395898,
        "lon": -106.49568125678937,
        "alt_km": 661.5972686062069,
        "timestamp": "2025-12-25T07:00:34.433389+00:00",
        "meta_object_name": "IRIDIUM 33 DEB",
        "meta_object_id": "1997-051BA",
        "meta_epoch": "2025-12-24T19:37:00.349824",
        "meta_mean_motion": 14.5678795,
        "meta_eccentricity": 0.00611156,
        "meta_inclination": 86.3859,
        "meta_ra_of_asc_node": 101.4931,
        "meta_arg_of_pericenter": 135.6602,
        "meta_mean_anomaly": 353.6404,
        "meta_ephemeris_type": 0,
        "meta_classification_type": "U",
        "meta_norad_cat_id": 33881,
        "meta_element_set_no": 999,
        "meta_rev_at_epoch": 87676,
        "meta_bstar": 0.0022055938,
        "meta_mean_motion_dot": 0.0001015,
        "meta_mean_motion_ddot": 0,
        "tle_line1": "1 33881U 97051BA  25358.81736516  .00010150  00000+0  22056-2 0  9998",
        "tle_line2": "2 33881  86.3859 101.4931 0061115 135.6602 353.6404 14.56787950876761"
      },
      "geometry": {
        "type": "Point",
        "coordinates": [
          -106.49568125678937,
          82.27800648395898
        ]
      }
    },
    {
      "type": "Feature",
      "properties": {
        "norad_id": 33884,
        "name": "IRIDIUM 33 DEB",
        "group": "iridium-33-debris",
        "lat": -84.11304122360484,
        "lon": -137.8427188452095,
        "alt_km": 637.9700575282068,
        "timestamp": "2025-12-25T07:00:34.433401+00:00",
        "meta_object_name": "IRIDIUM 33 DEB",
        "meta_object_id": "1997-051BD",
        "meta_epoch": "2025-12-24T07:08:21.813216",
        "meta_mean_motion": 14.77652131,
        "meta_eccentricity": 0.00088851,
        "meta_inclination": 86.3696,
        "meta_ra_of_asc_node": 4.5998,
        "meta_arg_of_pericenter": 278.0535,
        "meta_mean_anomaly": 99.9801,
        "meta_ephemeris_type": 0,
        "meta_classification_type": "U",
        "meta_norad_cat_id": 33884,
        "meta_element_set_no": 999,
        "meta_rev_at_epoch": 89018,
        "meta_bstar": 0.0016922324,
        "meta_mean_motion_dot": 0.00012148,
        "meta_mean_motion_ddot": 0,
        "tle_line1": "1 33884U 97051BD  25358.29747469  .00012148  00000+0  16922-2 0  9996",
        "tle_line2": "2 33884  86.3696   4.5998 0008885 278.0535  99.9801 14.77652131890189"
      },
      "geometry": {
        "type": "Point",
        "coordinates": [
          -137.8427188452095,
          -84.11304122360484
        ]
      }
    },
    {
      "type": "Feature",
      "properties": {
        "norad_id": 33886,
        "name": "IRIDIUM 33 DEB",
        "group": "iridium-33-debris",
        "lat": 60.883799760163065,
        "lon": -124.5780723920194,
        "alt_km": 763.7483514694441,
        "timestamp": "2025-12-25T07:00:34.433412+00:00",
        "meta_object_name": "IRIDIUM 33 DEB",
        "meta_object_id": "1997-051BF",
        "meta_epoch": "2025-12-24T22:54:04.271040",
        "meta_mean_motion": 14.36065616,
        "meta_eccentricity": 0.00134593,
        "meta_inclination": 86.3819,
        "meta_ra_of_asc_node": 62.0872,
        "meta_arg_of_pericenter": 198.3599,
        "meta_mean_anomaly": 335.1292,
        "meta_ephemeris_type": 0,
        "meta_classification_type": "U",
        "meta_norad_cat_id": 33886,
        "meta_element_set_no": 999,
        "meta_rev_at_epoch": 88227,
        "meta_bstar": 0.0001871981,
        "meta_mean_motion_dot": 5.64e-06,
        "meta_mean_motion_ddot": 0,
        "tle_line1": "1 33886U 97051BF  25358.95421610  .00000564  00000+0  18720-3 0  9996",
        "tle_line2": "2 33886  86.3819  62.0872 0013459 198.3599 335.1292 14.36065616882276"
      },
      "geometry": {
        "type": "Point",
        "coordinates": [
          -124.5780723920194,
          60.883799760163065
        ]
      }
    }
  ]
}